COSMOS 2419 (714)       
1 28915U 05050A   17164.84750031 -.00000028  00000-0  00000-0 0  9993
2 28915  65.4948  65.9631 0017227 353.3536  45.9965  2.13107168 89262
COSMOS 2425 (716)       
1 29670U 06062A   17164.78561343 -.00000016  00000-0  10000-3 0  9996
2 29670  65.4627 304.9761 0020475 350.4071  53.6322  2.13104880 81461
COSMOS 2426 (717)       
1 29671U 06062B   17164.59243539 -.00000016  00000-0  10000-3 0  9990
2 29671  65.4820 305.0738 0018294 159.8949 314.2996  2.13102884 81469
COSMOS 2424 (715)       
1 29672U 06062C   17164.73966111 -.00000016  00000-0  10000-3 0  9995
2 29672  65.4661 304.9895 0017846 158.7252 243.7284  2.13102287 81465
COSMOS 2433 (720)       
1 32275U 07052A   17164.80939605 -.00000028  00000-0  10000-3 0  9997
2 32275  65.5099  65.7447 0002955 301.5689 312.8133  2.13104595 74979
COSMOS 2432 (719)       
1 32276U 07052B   17164.59391225 -.00000028  00000-0  10000-3 0  9994
2 32276  65.5206  65.8238 0013089 339.1862  62.7771  2.13104086 74973
COSMOS 2434 (721)       
1 32393U 07065A   17164.59839677 -.00000017  00000-0  00000-0 0  9990
2 32393  65.0801 304.1341 0005857 109.3343 232.7850  2.13102905 73679
COSMOS 2436 (723)       
1 32395U 07065C   17164.47778597 -.00000017  00000-0  10000-3 0  9996
2 32395  65.0899 304.1839 0014609   7.3859 290.8729  2.13104282 73607
COSMOS 2443 (725)       
1 33379U 08046B   17164.84910403 -.00000029  00000-0  00000-0 0  9993
2 33379  65.4382  65.1262 0011476 180.0110   5.3868  2.13099414 67834
COSMOS 2456 (730)       
1 36111U 09070A   17164.45756956  .00000078  00000-0  00000-0 0  9999
2 36111  64.1803 183.7046 0006567 298.1709 106.9984  2.13103083 58343
COSMOS 2457 (733)       
1 36112U 09070B   17164.45146933  .00000078  00000-0  00000-0 0  9998
2 36112  64.1617 183.6238 0006359 191.2013 337.8590  2.13101636 58349
COSMOS 2458 (734)       
1 36113U 09070C   17164.29109385  .00000078  00000-0  10000-3 0  9995
2 36113  64.1678 183.6374 0002741 299.8524 154.1678  2.13102065 58345
COSMOS 2459 (731)       
1 36400U 10007A   17164.75964050 -.00000029  00000-0  10000-3 0  9992
2 36400  65.4183  64.8532 0029186 353.1219  85.2025  2.13102250 56706
COSMOS 2461 (735)       
1 36401U 10007B   17164.45950938 -.00000029  00000-0  10000-3 0  9990
2 36401  65.4117  64.8402 0007488  55.2449  63.4325  2.13102320 56693
COSMOS 2460 (732)       
1 36402U 10007C   17164.92847272 -.00000029  00000-0  10000-3 0  9999
2 36402  65.4019  64.7974 0001968   6.8232 152.9085  2.13101693 56708
COSMOS 2465 (737)       
1 37138U 10041B   17164.53997361 -.00000018  00000-0  00000-0 0  9990
2 37138  64.6781 304.1260 0036086 169.7913 172.5198  2.13107012 52761
COSMOS 2464 (736)       
1 37139U 10041C   17164.83518556 -.00000017  00000-0  00000-0 0  9998
2 37139  64.6854 304.1145 0023077  17.0924  14.4219  2.13102585 52777
COSMOS 2471 (701K)      
1 37372U 11009A   17164.75492465 -.00000029  00000-0  00000-0 0  9996
2 37372  65.3996  64.7493 0007256 242.3837 280.2761  2.13107551 48973
COSMOS 2474 (742)       
1 37829U 11055A   17164.77702525  .00000080  00000-0  00000-0 0  9993
2 37829  64.5046 184.2562 0010700 253.4501 256.6019  2.13101948 44345
COSMOS 2476 (744)       
1 37867U 11064A   17164.74904958  .00000080  00000-0  00000-0 0  9996
2 37867  64.4840 184.3301 0019942 246.7725 287.7605  2.13102014 43698
COSMOS 2477 (745)       
1 37868U 11064B   17164.84485506  .00000081  00000-0  00000-0 0  9992
2 37868  64.4926 184.3708 0017833 248.2025 178.9456  2.13101860 43651
COSMOS 2475 (743)       
1 37869U 11064C   17164.10726769  .00000077  00000-0  00000-0 0  9996
2 37869  64.4993 184.3869 0022794 271.2425 266.4411  2.13102006 43642
COSMOS 2485 (747)       
1 39155U 13019A   17164.58996784  .00000080  00000-0  00000-0 0  9990
2 39155  64.6536 184.3636 0020235 241.9717 215.5356  2.13102032 32162
COSMOS 2492 (754)       
1 39620U 14012A   17164.36321416 -.00000029  00000-0  10000-3 0  9999
2 39620  65.2912  64.7536 0016398 334.7225 342.9790  2.13103415 25103
COSMOS 2500 (755)       
1 40001U 14032A   17164.70175203 -.00000029  00000-0  00000-0 0  9991
2 40001  65.2307  64.7378 0004264 216.0992 224.3628  2.13102886 23339
COSMOS 2501 (702K)      
1 40315U 14075A   17164.59015115 -.00000019  00000-0  00000-0 0  9997
2 40315  64.4122 305.4660 0014636 203.8295 317.1093  2.13098567 19732
COSMOS 2514 (751)       
1 41330U 16008A   17164.49622693 -.00000029  00000-0  00000-0 0  9998
2 41330  65.0320  64.8916 0007719 223.3652 239.4037  2.13103415 10492
COSMOS 2516 (753)       
1 41554U 16032A   17164.70016823 -.00000018  00000-0  00000-0 0  9997
2 41554  64.6330 305.2266 0010918 212.9091 298.9264  2.13101519  8102
